[
    {
        "Altitude(m)": 622200.1005878946,
        "Argument of Periapsis(deg)": 0.0,
        "Eccentricity": 0.0,
        "Inclination(deg)": 60.0,
        "Latitude(deg)": -52.16251997559949,
        "Longitude(deg)": 167.3606311233557,
        "Mean Anomaly(deg)": -65.45449999999998,
        "RAAN(deg)": 315.0,
        "Satellite Name": "Test1 1404",
        "Satellite Number": 1404,
        "Semi-Major Axis(m)": 6980739.136638005,
        "Time(s)": 0
    },
    {
        "Altitude(m)": 622058.268778886,
        "Argument of Periapsis(deg)": 0.00010418945913296404,
        "Eccentricity": 0.0,
        "Inclination(deg)": 60.0,
        "Latitude(deg)": -51.79927089910609,
        "Longitude(deg)": 168.12869028434457,
        "Mean Anomaly(deg)": -64.83439385453813,
        "RAAN(deg)": 314.99957995086027,
        "Satellite Name": "Test1 1404",
        "Satellite Number": 1404,
        "Semi-Major Axis(m)": 6980739.136638005,
        "Time(s)": 10
    }
]